NUSAT-48 (HENRIETTA LE*)
1 60498U 24149AG  26068.80506098  .00012988  00000+0  45212-3 0  9999
2 60498  97.3923 150.8264 0002754 263.3026  96.7901 15.29812597 86946
STARLINK-35791          
1 66896U 25283U   26068.27018726  .00026498  00000+0  90370-3 0  9990
2 66896  53.1626  25.8507 0001187  53.7672 306.3438 15.30196711 15786
